start=new Date('2022-01-02T00:00:00.000Z').valueOf();
sats=[{"DECAY_DATE":null,"COUNTRY_CODE":"US","APOAPSIS":"548.770","OBJECT_TYPE":"PAYLOAD","FILE":"3255246","SEMIMAJOR_AXIS":"6925.364","EPHEMERIS_TYPE":"0","TLE_LINE1":"1 45771U 20038AT  22001.90062901  .00001278  00000-0  10471-3 0  9993","MEAN_MOTION_DOT":"0.00001278","REV_AT_EPOCH":"8647","PERIAPSIS":"545.688","RA_OF_ASC_NODE":"215.1377","OBJECT_NAME":"STARLINK-1463","MEAN_ELEMENT_THEORY":"SGP4","SITE":"AFETR","LAUNCH_DATE":"2020-06-13","ECCENTRICITY":"0.00022250","MEAN_ANOMALY":"283.7248","TLE_LINE2":"2 45771  53.0541 215.1377 0002225  76.3989 283.7248 15.06394850 86473","NORAD_CAT_ID":"45771","ARG_OF_PERICENTER":"76.3989","CENTER_NAME":"EARTH","GP_ID":"192891516","CLASSIFICATION_TYPE":"U","OBJECT_ID":"2020-038AT","EPOCH":"2022-01-01T21:36:54.346464","MEAN_MOTION_DDOT":"0.0000000000000","MEAN_MOTION":"15.06394850","PERIOD":"95.592","BSTAR":"0.00010471000000","TIME_SYSTEM":"UTC","RCS_SIZE":"LARGE","ELEMENT_SET_NO":"999","INCLINATION":"53.0541","REF_FRAME":"TEME"},{"TLE_LINE2":"2 45772  53.0524 215.1868 0002340  76.2790 283.8459 15.06395405 86480","MEAN_ANOMALY":"283.8459","NORAD_CAT_ID":"45772","ARG_OF_PERICENTER":"76.2790","GP_ID":"192892268","CENTER_NAME":"EARTH","CLASSIFICATION_TYPE":"U","OBJECT_ID":"2020-038AU","MEAN_MOTION_DDOT":"0.0000000000000","EPOCH":"2022-01-01T21:20:58.688160","MEAN_MOTION":"15.06395405","TIME_SYSTEM":"UTC","BSTAR":"0.00010681000000","PERIOD":"95.592","RCS_SIZE":"LARGE","ELEMENT_SET_NO":"999","INCLINATION":"53.0524","REF_FRAME":"TEME","DECAY_DATE":null,"OBJECT_TYPE":"PAYLOAD","APOAPSIS":"548.848","COUNTRY_CODE":"US","FILE":"3255246","SEMIMAJOR_AXIS":"6925.363","EPHEMERIS_TYPE":"0","TLE_LINE1":"1 45772U 20038AU  22001.88956815  .00001309  00000-0  10681-3 0  9995","REV_AT_EPOCH":"8648","PERIAPSIS":"545.607","MEAN_MOTION_DOT":"0.00001309","RA_OF_ASC_NODE":"215.1868","OBJECT_NAME":"STARLINK-1470","MEAN_ELEMENT_THEORY":"SGP4","SITE":"AFETR","LAUNCH_DATE":"2020-06-13","ECCENTRICITY":"0.00023400"},{"MEAN_ANOMALY":"288.3561","TLE_LINE2":"2 45773  53.0542 215.8116 0001932  71.7638 288.3561 15.06393207 86461","NORAD_CAT_ID":"45773","ARG_OF_PERICENTER":"71.7638","CENTER_NAME":"EARTH","GP_ID":"192893018","CLASSIFICATION_TYPE":"U","OBJECT_ID":"2020-038AV","EPOCH":"2022-01-01T17:59:17.044512","MEAN_MOTION_DDOT":"0.0000000000000","MEAN_MOTION":"15.06393207","PERIOD":"95.593","BSTAR":"0.00008885800000","TIME_SYSTEM":"UTC","RCS_SIZE":"LARGE","ELEMENT_SET_NO":"999","INCLINATION":"53.0542","REF_FRAME":"TEME","DECAY_DATE":null,"APOAPSIS":"548.572","COUNTRY_CODE":"US","OBJECT_TYPE":"PAYLOAD","FILE":"3255246","SEMIMAJOR_AXIS":"6925.369","EPHEMERIS_TYPE":"0","TLE_LINE1":"1 45773U 20038AV  22001.74950283  .00001042  00000-0  88858-4 0  9990","MEAN_MOTION_DOT":"0.00001042","PERIAPSIS":"545.896","REV_AT_EPOCH":"8646","RA_OF_ASC_NODE":"215.8116","OBJECT_NAME":"STARLINK-1482","MEAN_ELEMENT_THEORY":"SGP4","SITE":"AFETR","LAUNCH_DATE":"2020-06-13","ECCENTRICITY":"0.00019320"},{"SITE":"AFETR","MEAN_ELEMENT_THEORY":"SGP4","OBJECT_NAME":"STARLINK-1485","ECCENTRICITY":"0.00020070","LAUNCH_DATE":"2020-06-13","SEMIMAJOR_AXIS":"6925.343","FILE":"3255246","COUNTRY_CODE":"US","APOAPSIS":"548.597","OBJECT_TYPE":"PAYLOAD","DECAY_DATE":null,"RA_OF_ASC_NODE":"215.6378","MEAN_MOTION_DOT":"0.00001776","REV_AT_EPOCH":"8646","PERIAPSIS":"545.818","TLE_LINE1":"1 45774U 20038AW  22001.78635280  .00001776  00000-0  13807-3 0  9997","EPHEMERIS_TYPE":"0","BSTAR":"0.00013807000000","PERIOD":"95.592","TIME_SYSTEM":"UTC","MEAN_MOTION":"15.06401961","REF_FRAME":"TEME","INCLINATION":"53.0525","ELEMENT_SET_NO":"999","RCS_SIZE":"MEDIUM","CENTER_NAME":"EARTH","GP_ID":"192891766","ARG_OF_PERICENTER":"74.6066","NORAD_CAT_ID":"45774","MEAN_ANOMALY":"285.5145","TLE_LINE2":"2 45774  53.0525 215.6378 0002007  74.6066 285.5145 15.06401961 86466","EPOCH":"2022-01-01T18:52:20.881920","MEAN_MOTION_DDOT":"0.0000000000000","OBJECT_ID":"2020-038AW","CLASSIFICATION_TYPE":"U"},{"SITE":"AFETR","MEAN_ELEMENT_THEORY":"SGP4","OBJECT_NAME":"STARLINK-1488","ECCENTRICITY":"0.00022680","LAUNCH_DATE":"2020-06-13","SEMIMAJOR_AXIS":"6925.350","FILE":"3255246","OBJECT_TYPE":"PAYLOAD","COUNTRY_CODE":"US","APOAPSIS":"548.786","DECAY_DATE":null,"RA_OF_ASC_NODE":"215.6307","PERIAPSIS":"545.644","REV_AT_EPOCH":"8647","MEAN_MOTION_DOT":"0.00001577","TLE_LINE1":"1 45775U 20038AX  22001.79004176  .00001577  00000-0  12474-3 0  9991","EPHEMERIS_TYPE":"0","TIME_SYSTEM":"UTC","BSTAR":"0.00012474000000","PERIOD":"95.592","MEAN_MOTION":"15.06399486","REF_FRAME":"TEME","INCLINATION":"53.0536","ELEMENT_SET_NO":"999","RCS_SIZE":"LARGE","GP_ID":"192892016","CENTER_NAME":"EARTH","ARG_OF_PERICENTER":"67.5266","NORAD_CAT_ID":"45775","TLE_LINE2":"2 45775  53.0536 215.6307 0002268  67.5266 292.5963 15.06399486 86478","MEAN_ANOMALY":"292.5963","MEAN_MOTION_DDOT":"0.0000000000000","EPOCH":"2022-01-01T18:57:39.608064","OBJECT_ID":"2020-038AX","CLASSIFICATION_TYPE":"U"},{"INCLINATION":"53.0524","REF_FRAME":"TEME","RCS_SIZE":"LARGE","ELEMENT_SET_NO":"999","BSTAR":"0.00010700000000","PERIOD":"95.592","TIME_SYSTEM":"UTC","MEAN_MOTION":"15.06399760","OBJECT_ID":"2020-038AY","EPOCH":"2022-01-01T09:35:01.836384","MEAN_MOTION_DDOT":"0.0000000000000","CLASSIFICATION_TYPE":"U","ARG_OF_PERICENTER":"74.1458","CENTER_NAME":"EARTH","GP_ID":"192867841","MEAN_ANOMALY":"285.9750","TLE_LINE2":"2 45776  53.0524 217.3797 0001987  74.1458 285.9750 15.06399760 86411","NORAD_CAT_ID":"45776","ECCENTRICITY":"0.00019870","LAUNCH_DATE":"2020-06-13","MEAN_ELEMENT_THEORY":"SGP4","SITE":"AFETR","OBJECT_NAME":"STARLINK-1489","MEAN_MOTION_DOT":"0.00001312","REV_AT_EPOCH":"8641","PERIAPSIS":"545.838","RA_OF_ASC_NODE":"217.3797","EPHEMERIS_TYPE":"0","TLE_LINE1":"1 45776U 20038AY  22001.39932681  .00001312  00000-0  10700-3 0  9996","FILE":"3255244","SEMIMAJOR_AXIS":"6925.349","DECAY_DATE":null,"COUNTRY_CODE":"US","APOAPSIS":"548.590","OBJECT_TYPE":"PAYLOAD"},{"NORAD_CAT_ID":"45777","TLE_LINE2":"2 45777  53.0540 215.6183 0002018  65.9575 294.1625 15.06386282 86478","MEAN_ANOMALY":"294.1625","GP_ID":"192892519","CENTER_NAME":"EARTH","ARG_OF_PERICENTER":"65.9575","CLASSIFICATION_TYPE":"U","MEAN_MOTION_DDOT":"0.0000000000000","EPOCH":"2022-01-01T19:02:59.523936","OBJECT_ID":"2020-038AZ","MEAN_MOTION":"15.06386282","TIME_SYSTEM":"UTC","BSTAR":"0.00008442200000","PERIOD":"95.593","ELEMENT_SET_NO":"999","RCS_SIZE":"LARGE","REF_FRAME":"TEME","INCLINATION":"53.0540","OBJECT_TYPE":"PAYLOAD","COUNTRY_CODE":"US","APOAPSIS":"548.653","DECAY_DATE":null,"SEMIMAJOR_AXIS":"6925.391","FILE":"3255246","TLE_LINE1":"1 45777U 20038AZ  22001.79374449  .00000976  00000-0  84422-4 0  9991","EPHEMERIS_TYPE":"0","RA_OF_ASC_NODE":"215.6183","REV_AT_EPOCH":"8647","PERIAPSIS":"545.858","MEAN_MOTION_DOT":"0.00000976","OBJECT_NAME":"STARLINK-1490","SITE":"AFETR","MEAN_ELEMENT_THEORY":"SGP4","LAUNCH_DATE":"2020-06-13","ECCENTRICITY":"0.00020180"},{"BSTAR":"0.00010837000000","PERIOD":"95.593","TIME_SYSTEM":"UTC","MEAN_MOTION":"15.06385002","INCLINATION":"53.0530","REF_FRAME":"TEME","RCS_SIZE":"LARGE","ELEMENT_SET_NO":"999","ARG_OF_PERICENTER":"75.0175","CENTER_NAME":"EARTH","GP_ID":"192891267","MEAN_ANOMALY":"285.1016","TLE_LINE2":"2 45778  53.0530 215.1008 0001827  75.0175 285.1016 15.06385002 86477","NORAD_CAT_ID":"45778","OBJECT_ID":"2020-038BA","EPOCH":"2022-01-01T21:47:32.122752","MEAN_MOTION_DDOT":"0.0000000000000","CLASSIFICATION_TYPE":"U","MEAN_ELEMENT_THEORY":"SGP4","SITE":"AFETR","OBJECT_NAME":"STARLINK-1491","ECCENTRICITY":"0.00018270","LAUNCH_DATE":"2020-06-13","FILE":"3255246","SEMIMAJOR_AXIS":"6925.395","DECAY_DATE":null,"APOAPSIS":"548.525","COUNTRY_CODE":"US","OBJECT_TYPE":"PAYLOAD","MEAN_MOTION_DOT":"0.00001332","PERIAPSIS":"545.994","REV_AT_EPOCH":"8647","RA_OF_ASC_NODE":"215.1008","EPHEMERIS_TYPE":"0","TLE_LINE1":"1 45778U 20038BA  22001.90801068  .00001332  00000-0  10837-3 0  9992"},{"TLE_LINE1":"1 45779U 20038BB  22001.90430563  .00001951  00000-0  14982-3 0  9993","EPHEMERIS_TYPE":"0","RA_OF_ASC_NODE":"215.1205","MEAN_MOTION_DOT":"0.00001951","REV_AT_EPOCH":"8647","PERIAPSIS":"545.971","COUNTRY_CODE":"US","APOAPSIS":"548.453","OBJECT_TYPE":"PAYLOAD","DECAY_DATE":null,"SEMIMAJOR_AXIS":"6925.347","FILE":"3255246","LAUNCH_DATE":"2020-06-13","ECCENTRICITY":"0.00017920","OBJECT_NAME":"STARLINK-1492","SITE":"AFETR","MEAN_ELEMENT_THEORY":"SGP4","CLASSIFICATION_TYPE":"U","EPOCH":"2022-01-01T21:42:12.006432","MEAN_MOTION_DDOT":"0.0000000000000","OBJECT_ID":"2020-038BB","NORAD_CAT_ID":"45779","MEAN_ANOMALY":"289.5256","TLE_LINE2":"2 45779  53.0519 215.1205 0001792  70.5927 289.5256 15.06400561 86472","CENTER_NAME":"EARTH","GP_ID":"192891517","ARG_OF_PERICENTER":"70.5927","ELEMENT_SET_NO":"999","RCS_SIZE":"LARGE","REF_FRAME":"TEME","INCLINATION":"53.0519","MEAN_MOTION":"15.06400561","BSTAR":"0.00014982000000","PERIOD":"95.592","TIME_SYSTEM":"UTC"},{"OBJECT_NAME":"STARLINK-1496","SITE":"AFETR","MEAN_ELEMENT_THEORY":"SGP4","LAUNCH_DATE":"2020-06-13","ECCENTRICITY":"0.00019520","COUNTRY_CODE":"US","APOAPSIS":"548.602","OBJECT_TYPE":"PAYLOAD","DECAY_DATE":null,"SEMIMAJOR_AXIS":"6925.385","FILE":"3255246","TLE_LINE1":"1 45780U 20038BC  22001.78267585 -.00000525  00000-0 -16345-4 0  9997","EPHEMERIS_TYPE":"0","RA_OF_ASC_NODE":"215.6708","MEAN_MOTION_DOT":"-0.00000525","REV_AT_EPOCH":"8645","PERIAPSIS":"545.898","MEAN_MOTION":"15.06388074","BSTAR":"-0.00001634500000","PERIOD":"95.593","TIME_SYSTEM":"UTC","ELEMENT_SET_NO":"999","RCS_SIZE":"LARGE","REF_FRAME":"TEME","INCLINATION":"53.0539","NORAD_CAT_ID":"45780","MEAN_ANOMALY":"281.0068","TLE_LINE2":"2 45780  53.0539 215.6708 0001952  79.1141 281.0068 15.06388074 86450","CENTER_NAME":"EARTH","GP_ID":"192892269","ARG_OF_PERICENTER":"79.1141","CLASSIFICATION_TYPE":"U","EPOCH":"2022-01-01T18:47:03.193440","MEAN_MOTION_DDOT":"0.0000000000000","OBJECT_ID":"2020-038BC"}];
